IRIDIUM 166             
1 43570U 18061B   23228.79067635  .00000327  00000+0  10982-3 0  9999
2 43570  86.3988 129.4961 0002335  82.9532 277.1929 14.34220159264995
IRIDIUM 158             
1 43571U 18061C   23229.45664969  .00000340  00000+0  11439-3 0  9990
2 43571  86.3989 129.2269 0002349  76.0413 284.1044 14.34219183265063
IRIDIUM 165             
1 43572U 18061D   23228.99364570  .00000340  00000+0  11442-3 0  9998
2 43572  86.3991 129.4471 0002407  74.6872 285.4589 14.34218607265015
IRIDIUM 155             
1 43573U 18061E   23228.67650489  .00000280  00000+0  92991-4 0  9993
2 43573  86.3988 129.4994 0002350  90.7832 269.3633 14.34213985264940
IRIDIUM 154             
1 43574U 18061F   23229.21563066  .00000312  00000+0  10429-3 0  9990
2 43574  86.3991 129.3573 0001942  81.1755 278.9661 14.34216844265069
IRIDIUM 163             
1 43575U 18061G   23228.28961227  .00000336  00000+0  11284-3 0  9994
2 43575  86.3989 129.6918 0002146  82.2138 277.9301 14.34217985264906
IRIDIUM 156             
1 43576U 18061H   23228.26424191  .00000344  00000+0  11570-3 0  9994
2 43576  86.3990 129.7081 0002497  84.3007 275.8473 14.34216259264885
IRIDIUM 164             
1 43577U 18061J   23228.24521910  .00000349  00000+0  11758-3 0  9993
2 43577  86.3991 129.7405 0002306  78.2596 281.8858 14.34216842264939
